GLOBALSTAR M023 [+]     
1 25621U 99004A   24029.48691471 -.00000027  00000+0  42775-3 0  9992
2 25621  52.0100 150.1901 0011094  92.2496 344.6121 12.62444901151988
GLOBALSTAR M040 [-]     
1 25622U 99004B   24029.76162094 -.00000102  00000+0  77249-5 0  9998
2 25622  51.9909 152.7706 0001051  66.2812  98.2838 12.61965303151564
GLOBALSTAR M036 [-]     
1 25623U 99004C   24029.46021314 -.00000045  00000+0  55695-3 0  9990
2 25623  51.9964 130.6216 0012024 162.4984 278.2462 11.86559481119062
GLOBALSTAR M038 [-]     
1 25624U 99004D   24029.61496962 -.00000049  00000+0  38132-3 0  9994
2 25624  51.9974  84.6361 0002183  94.7364  71.8114 12.32492325140157
GLOBALSTAR M022 [-]     
1 25649U 99012A   24029.78416146 -.00000067  00000+0  24223-3 0  9990
2 25649  52.0008 222.0716 0001536 239.3794 255.0548 12.02477113115694
GLOBALSTAR M041 [-]     
1 25650U 99012B   24029.45935160 -.00000019  00000+0  86188-3 0  9993
2 25650  52.0022  89.0177 0002201  56.7228 303.3819 11.96655137117851
GLOBALSTAR M046 [-]     
1 25651U 99012C   24029.62880315 -.00000109  00000+0 -22726-3 0  9993
2 25651  52.0030 191.0429 0001640 358.9174 125.9187 12.09384895122619
GLOBALSTAR M037 [+]     
1 25652U 99012D   24028.89021612 -.00000035  00000+0  38092-3 0  9999
2 25652  52.0005 282.8236 0002183 123.9465 315.6270 12.62394500147456
